{
  "type": "FeatureCollection",
  "features": [
    {
      "type": "Feature",
      "properties": {
        "norad_id": 40115,
        "name": "WORLDVIEW-3 (WV-3)",
        "group": "resource",
        "lat": 66.03651017828976,
        "lon": -110.92444287099154,
        "alt_km": 606.2046941792178,
        "timestamp": "2025-12-04T13:52:00.105187+00:00",
        "meta_object_name": "WORLDVIEW-3 (WV-3)",
        "meta_object_id": "2014-048A",
        "meta_epoch": "2025-12-04T06:53:40.023456",
        "meta_mean_motion": 14.85478578,
        "meta_eccentricity": 0.00041589,
        "meta_inclination": 97.8628,
        "meta_ra_of_asc_node": 50.674,
        "meta_arg_of_pericenter": 214.7207,
        "meta_mean_anomaly": 145.3737,
        "meta_ephemeris_type": 0,
        "meta_classification_type": "U",
        "meta_norad_cat_id": 40115,
        "meta_element_set_no": 999,
        "meta_rev_at_epoch": 61298,
        "meta_bstar": 0.00034799412,
        "meta_mean_motion_dot": 2.949e-05,
        "meta_mean_motion_ddot": 0,
        "tle_line1": "1 40115U 14048A   25338.28726879  .00002949  00000+0  34799-3 0  9996",
        "tle_line2": "2 40115  97.8628  50.6740 0004158 214.7207 145.3737 14.85478578612989"
      },
      "geometry": {
        "type": "Point",
        "coordinates": [
          -110.92444287099154,
          66.03651017828976
        ]
      }
    },
    {
      "type": "Feature",
      "properties": {
        "norad_id": 40118,
        "name": "GAOFEN-2",
        "group": "resource",
        "lat": 71.78666563396231,
        "lon": 12.292166369880174,
        "alt_km": 617.9014164678847,
        "timestamp": "2025-12-04T13:52:00.105197+00:00",
        "meta_object_name": "GAOFEN-2",
        "meta_object_id": "2014-049A",
        "meta_epoch": "2025-12-04T07:02:51.111168",
        "meta_mean_motion": 14.80585694,
        "meta_eccentricity": 0.0008251,
        "meta_inclination": 98.0397,
        "meta_ra_of_asc_node": 37.4471,
        "meta_arg_of_pericenter": 137.3011,
        "meta_mean_anomaly": 222.8843,
        "meta_ephemeris_type": 0,
        "meta_classification_type": "U",
        "meta_norad_cat_id": 40118,
        "meta_element_set_no": 999,
        "meta_rev_at_epoch": 61039,
        "meta_bstar": 0.0002086861,
        "meta_mean_motion_dot": 1.548e-05,
        "meta_mean_motion_ddot": 0,
        "tle_line1": "1 40118U 14049A   25338.29364712  .00001548  00000+0  20869-3 0  9992",
        "tle_line2": "2 40118  98.0397  37.4471 0008251 137.3011 222.8843 14.80585694610398"
      },
      "geometry": {
        "type": "Point",
        "coordinates": [
          12.292166369880174,
          71.78666563396231
        ]
      }
    },
    {
      "type": "Feature",
      "properties": {
        "norad_id": 40143,
        "name": "YAOGAN-21",
        "group": "resource",
        "lat": -35.81639242275596,
        "lon": -162.97118652593787,
        "alt_km": 507.6429353390231,
        "timestamp": "2025-12-04T13:52:00.105207+00:00",
        "meta_object_name": "YAOGAN-21",
        "meta_object_id": "2014-053A",
        "meta_epoch": "2025-12-04T08:11:35.065248",
        "meta_mean_motion": 15.23517342,
        "meta_eccentricity": 0.00101969,
        "meta_inclination": 97.1771,
        "meta_ra_of_asc_node": 22.0202,
        "meta_arg_of_pericenter": 67.3444,
        "meta_mean_anomaly": 292.8871,
        "meta_ephemeris_type": 0,
        "meta_classification_type": "U",
        "meta_norad_cat_id": 40143,
        "meta_element_set_no": 999,
        "meta_rev_at_epoch": 62526,
        "meta_bstar": 0.00068764032,
        "meta_mean_motion_dot": 0.00016396,
        "meta_mean_motion_ddot": 0,
        "tle_line1": "1 40143U 14053A   25338.34137807  .00016396  00000+0  68764-3 0  9997",
        "tle_line2": "2 40143  97.1771  22.0202 0010196  67.3444 292.8871 15.23517342625260"
      },
      "geometry": {
        "type": "Point",
        "coordinates": [
          -162.97118652593787,
          -35.81639242275596
        ]
      }
    },
    {
      "type": "Feature",
      "properties": {
        "norad_id": 40275,
        "name": "YAOGAN-22",
        "group": "resource",
        "lat": 33.811206447165944,
        "lon": 114.57852859329977,
        "alt_km": 1202.1678150605185,
        "timestamp": "2025-12-04T13:52:00.105217+00:00",
        "meta_object_name": "YAOGAN-22",
        "meta_object_id": "2014-063A",
        "meta_epoch": "2025-12-04T06:23:27.203712",
        "meta_mean_motion": 13.15522506,
        "meta_eccentricity": 0.00058907,
        "meta_inclination": 100.7418,
        "meta_ra_of_asc_node": 121.5663,
        "meta_arg_of_pericenter": 268.7473,
        "meta_mean_anomaly": 91.2963,
        "meta_ephemeris_type": 0,
        "meta_classification_type": "U",
        "meta_norad_cat_id": 40275,
        "meta_element_set_no": 999,
        "meta_rev_at_epoch": 53418,
        "meta_bstar": 0.00015699263,
        "meta_mean_motion_dot": 1.2e-07,
        "meta_mean_motion_ddot": 0,
        "tle_line1": "1 40275U 14063A   25338.26628708  .00000012  00000+0  15699-3 0  9997",
        "tle_line2": "2 40275 100.7418 121.5663 0005890 268.7473  91.2963 13.15522506534185"
      },
      "geometry": {
        "type": "Point",
        "coordinates": [
          114.57852859329977,
          33.811206447165944
        ]
      }
    },
    {
      "type": "Feature",
      "properties": {
        "norad_id": 40298,
        "name": "ASNARO",
        "group": "resource",
        "lat": 27.647966424711086,
        "lon": 50.83960999150954,
        "alt_km": 508.736800149225,
        "timestamp": "2025-12-04T13:52:00.105227+00:00",
        "meta_object_name": "ASNARO",
        "meta_object_id": "2014-070A",
        "meta_epoch": "2025-12-04T07:25:16.146624",
        "meta_mean_motion": 15.19219393,
        "meta_eccentricity": 0.000515,
        "meta_inclination": 97.3668,
        "meta_ra_of_asc_node": 54.4639,
        "meta_arg_of_pericenter": 146.7233,
        "meta_mean_anomaly": 213.4327,
        "meta_ephemeris_type": 0,
        "meta_classification_type": "U",
        "meta_norad_cat_id": 40298,
        "meta_element_set_no": 999,
        "meta_rev_at_epoch": 61441,
        "meta_bstar": 0.0014031854,
        "meta_mean_motion_dot": 0.00029585,
        "meta_mean_motion_ddot": 0,
        "tle_line1": "1 40298U 14070A   25338.30921466  .00029585  00000+0  14032-2 0  9997",
        "tle_line2": "2 40298  97.3668  54.4639 0005150 146.7233 213.4327 15.19219393614413"
      },
      "geometry": {
        "type": "Point",
        "coordinates": [
          50.83960999150954,
          27.647966424711086
        ]
      }
    },
    {
      "type": "Feature",
      "properties": {
        "norad_id": 40310,
        "name": "YAOGAN-24",
        "group": "resource",
        "lat": -7.579974682009419,
        "lon": -71.46098570420698,
        "alt_km": 636.28463133077,
        "timestamp": "2025-12-04T13:52:00.105237+00:00",
        "meta_object_name": "YAOGAN-24",
        "meta_object_id": "2014-072A",
        "meta_epoch": "2025-12-04T08:08:23.220960",
        "meta_mean_motion": 14.76149431,
        "meta_eccentricity": 0.00143063,
        "meta_inclination": 98.1218,
        "meta_ra_of_asc_node": 109.3881,
        "meta_arg_of_pericenter": 164.0337,
        "meta_mean_anomaly": 196.1326,
        "meta_ephemeris_type": 0,
        "meta_classification_type": "U",
        "meta_norad_cat_id": 40310,
        "meta_element_set_no": 999,
        "meta_rev_at_epoch": 59497,
        "meta_bstar": 0.00027931893,
        "meta_mean_motion_dot": 1.88e-05,
        "meta_mean_motion_ddot": 0,
        "tle_line1": "1 40310U 14072A   25338.33915765  .00001880  00000+0  27932-3 0  9994",
        "tle_line2": "2 40310  98.1218 109.3881 0014306 164.0337 196.1326 14.76149431594979"
      },
      "geometry": {
        "type": "Point",
        "coordinates": [
          -71.46098570420698,
          -7.579974682009419
        ]
      }
    },
    {
      "type": "Feature",
      "properties": {
        "norad_id": 40336,
        "name": "CBERS 4",
        "group": "resource",
        "lat": 39.947148752090534,
        "lon": 29.82324992108343,
        "alt_km": 770.1100697441925,
        "timestamp": "2025-12-04T13:52:00.105248+00:00",
        "meta_object_name": "CBERS 4",
        "meta_object_id": "2014-079A",
        "meta_epoch": "2025-12-04T06:59:14.833824",
        "meta_mean_motion": 14.35512749,
        "meta_eccentricity": 0.00014432,
        "meta_inclination": 98.3322,
        "meta_ra_of_asc_node": 36.5968,
        "meta_arg_of_pericenter": 124.2287,
        "meta_mean_anomaly": 235.9036,
        "meta_ephemeris_type": 0,
        "meta_classification_type": "U",
        "meta_norad_cat_id": 40336,
        "meta_element_set_no": 999,
        "meta_rev_at_epoch": 57599,
        "meta_bstar": 0.00013360204,
        "meta_mean_motion_dot": 3.42e-06,
        "meta_mean_motion_ddot": 0,
        "tle_line1": "1 40336U 14079A   25338.29114391  .00000342  00000+0  13360-3 0  9992",
        "tle_line2": "2 40336  98.3322  36.5968 0001443 124.2287 235.9036 14.35512749575994"
      },
      "geometry": {
        "type": "Point",
        "coordinates": [
          29.82324992108343,
          39.947148752090534
        ]
      }
    }
  ]
}